NORAD_CAT_ID,OBJECT_NAME,OBJECT_TYPE,EPOCH,MEAN_MOTION,ECCENTRICITY,INCLINATION,RA_OF_ASC_NODE,ARG_OF_PERICENTER,MEAN_ANOMALY,BSTAR,MEAN_MOTION_DOT,MEAN_MOTION_DDOT,TLE_LINE0,TLE_LINE1,TLE_LINE2,SEMIMAJOR_AXIS,PERIOD,APOGEE,PERIGEE,DECAYED
54181.0,STARLINK-5227,PAYLOAD,2024-04-05 12:05:52,15.08840416,0.0001419,53.2164,280.6183,78.9976,281.1176,0.00015389,2.162e-05,0.0,0 STARLINK-5227,1 54181U 22141AA  24096.50408224  .00002162  00000-0  15389-3 0  9995,2 54181  53.2164 280.6183 0001419  78.9976 281.1176 15.08840416 79707,6917.879,95.438,540.726,538.762,0.0
54181.0,STARLINK-5227,PAYLOAD,2024-04-05 18:27:25,15.08838857,0.0001284,53.2159,279.4287,87.8479,272.266,0.00014595,2.036e-05,0.0,0 STARLINK-5227,1 54181U 22141AA  24096.76904269  .00002036  00000-0  14595-3 0  9991,2 54181  53.2159 279.4287 0001284  87.8479 272.2660 15.08838857 79973,6917.884,95.438,540.637,538.861,0.0
54181.0,STARLINK-5227,PAYLOAD,2024-04-06 11:56:39,15.08842471,0.0001369,53.2171,276.1575,88.3588,271.7561,0.00010479,1.38e-05,0.0,0 STARLINK-5227,1 54181U 22141AA  24097.49767957  .00001380  00000-0  10479-3 0  9991,2 54181  53.2171 276.1575 0001369  88.3588 271.7561 15.08842471 79850,6917.873,95.437,540.685,538.791,0.0
54181.0,STARLINK-5227,PAYLOAD,2024-04-06 18:18:12,15.08844697,0.0001381,53.216,274.9682,87.0123,273.1027,0.00014621,2.04e-05,0.0,0 STARLINK-5227,1 54181U 22141AA  24097.76263894  .00002040  00000-0  14621-3 0  9999,2 54181  53.2160 274.9682 0001381  87.0123 273.1027 15.08844697 79897,6917.866,95.437,540.686,538.776,0.0
54181.0,STARLINK-5227,PAYLOAD,2024-04-07 11:47:26,15.08835446,0.0001369,53.215,271.6959,90.0907,270.0242,1.5125e-05,-4.7e-07,0.0,0 STARLINK-5227,1 54181U 22141AA  24098.49128444 -.00000047  00000-0  15125-4 0  9998,2 54181  53.2150 271.6959 0001369  90.0907 270.0242 15.08835446 80234,6917.894,95.438,540.706,538.812,0.0
54181.0,STARLINK-5227,PAYLOAD,2024-04-08 11:38:14,15.08836695,0.0001191,53.2141,267.2358,87.997,272.1158,3.4834e-05,2.67e-06,0.0,0 STARLINK-5227,1 54181U 22141AA  24099.48488647  .00000267  00000-0  34834-4 0  9993,2 54181  53.2141 267.2358 0001191  87.9970 272.1158 15.08836695 80153,6917.89,95.438,540.579,538.932,0.0
54181.0,STARLINK-5227,PAYLOAD,2024-04-08 17:59:46,15.08845239,0.0001424,53.216,266.0464,85.0504,275.065,8.455e-05,1.058e-05,0.0,0 STARLINK-5227,1 54181U 22141AA  24099.74984058  .00001058  00000-0  84550-4 0  9998,2 54181  53.2160 266.0464 0001424  85.0504 275.0650 15.08845239 80423,6917.864,95.437,540.714,538.744,0.0
54181.0,STARLINK-5227,PAYLOAD,2024-04-09 09:53:37,15.08837683,0.0001508,53.2144,263.0732,83.5778,276.5385,0.00014012,1.943e-05,0.0,0 STARLINK-5227,1 54181U 22141AA  24100.41224406  .00001943  00000-0  14012-3 0  9997,2 54181  53.2144 263.0732 0001508  83.5778 276.5385 15.08837683 80525,6917.887,95.438,540.796,538.709,0.0
54181.0,STARLINK-5227,PAYLOAD,2024-04-09 17:50:33,15.08838814,0.0001459,53.2139,261.5854,79.5634,280.5523,0.00012387,1.684e-05,0.0,0 STARLINK-5227,1 54181U 22141AA  24100.74344452  .00001684  00000-0  12387-3 0  9992,2 54181  53.2139 261.5854 0001459  79.5634 280.5523 15.08838814 80344,6917.884,95.438,540.758,538.74,0.0
54181.0,STARLINK-5227,PAYLOAD,2024-04-10 11:19:48,15.08854517,0.0001407,53.2149,258.3152,80.2108,279.9043,-0.00022815,-3.919e-05,0.0,0 STARLINK-5227,1 54181U 22141AA  24101.47208413 -.00003919  00000-0 -22815-3 0  9991,2 54181  53.2149 258.3152 0001407  80.2108 279.9043 15.08854517 80682,6917.836,95.437,540.674,538.728,0.0
54181.0,STARLINK-5227,PAYLOAD,2024-04-10 17:41:20,15.08854608,0.0001146,53.2152,257.1262,82.498,277.6142,-0.0001817,-3.18e-05,0.0,0 STARLINK-5227,1 54181U 22141AA  24101.73704285 -.00003180  00000-0 -18170-3 0  9997,2 54181  53.2152 257.1262 0001146  82.4980 277.6142 15.08854608 80492,6917.836,95.437,540.494,538.908,0.0
54181.0,STARLINK-5227,PAYLOAD,2024-04-11 03:13:39,15.0883984,0.0001191,53.2154,255.3417,84.8301,275.2827,3.8383e-05,3.23e-06,0.0,0 STARLINK-5227,1 54181U 22141AA  24102.13448680  .00000323  00000-0  38383-4 0  9999,2 54181  53.2154 255.3417 0001191  84.8301 275.2827 15.08839840 80786,6917.881,95.438,540.57,538.922,0.0
54181.0,STARLINK-5227,PAYLOAD,2024-04-11 14:21:21,15.0883933,0.0001197,53.217,253.2606,90.385,269.7279,3.2464e-05,2.29e-06,0.0,0 STARLINK-5227,1 54181U 22141AA  24102.59816772  .00000229  00000-0  32464-4 0  9999,2 54181  53.2170 253.2606 0001197  90.3850 269.7279 15.08839330 80624,6917.882,95.438,540.576,538.919,0.0
54181.0,STARLINK-5227,PAYLOAD,2024-04-12 09:25:59,15.0884193,0.0001249,53.219,249.6928,91.6236,268.4899,3.5964e-05,2.85e-06,0.0,0 STARLINK-5227,1 54181U 22141AA  24103.39304783  .00000285  00000-0  35964-4 0  9992,2 54181  53.2190 249.6928 0001249  91.6236 268.4899 15.08841930 80973,6917.874,95.437,540.604,538.875,0.0
54181.0,STARLINK-5227,PAYLOAD,2024-04-12 14:12:08,15.08839124,0.0001411,53.218,248.8,83.0462,277.069,4.9037e-05,4.93e-06,0.0,0 STARLINK-5227,1 54181U 22141AA  24103.59176995  .00000493  00000-0  49037-4 0  9993,2 54181  53.2180 248.8000 0001411  83.0462 277.0690 15.08839124 80776,6917.883,95.438,540.724,538.772,0.0
54181.0,STARLINK-5227,PAYLOAD,2024-04-13 14:02:55,15.08867512,0.0001866,53.2178,244.3397,72.169,287.9506,-0.00030585,-5.156e-05,0.0,0 STARLINK-5227,1 54181U 22141AA  24104.58536019 -.00005156  00000-0 -30585-3 0  9990,2 54181  53.2178 244.3397 0001866  72.1690 287.9506 15.08867512 80924,6917.796,95.436,540.952,538.37,0.0
54181.0,STARLINK-5227,PAYLOAD,2024-04-13 15:38:19,15.08843231,0.0001715,53.218,244.043,65.2658,294.8513,6.2453e-05,7.06e-06,0.0,0 STARLINK-5227,1 54181U 22141AA  24104.65160920  .00000706  00000-0  62453-4 0  9996,2 54181  53.2180 244.0430 0001715  65.2658 294.8513 15.08843231 81166,6917.871,95.437,540.922,538.549,0.0
54181.0,STARLINK-5227,PAYLOAD,2024-04-14 15:29:05,15.08846672,0.0001543,53.2183,239.5813,87.1675,272.9494,0.00011832,1.596e-05,0.0,0 STARLINK-5227,1 54181U 22141AA  24105.64520410  .00001596  00000-0  11832-3 0  9992,2 54181  53.2183 239.5813 0001543  87.1675 272.9494 15.08846672 81082,6917.86,95.437,540.792,538.658,0.0
54181.0,STARLINK-5227,PAYLOAD,2024-04-15 12:09:06,15.08842979,0.0001599,53.2186,235.7165,97.1472,262.9702,7.046e-05,8.34e-06,0.0,0 STARLINK-5227,1 54181U 22141AA  24106.50632611  .00000834  00000-0  70460-4 0  9992,2 54181  53.2186 235.7165 0001599  97.1472 262.9702 15.08842979 81447,6917.871,95.437,540.842,538.63,0.0
54181.0,STARLINK-5227,PAYLOAD,2024-04-15 13:44:29,15.08843087,0.0001602,53.2187,235.4191,98.462,261.6554,6.8142e-05,7.97e-06,0.0,0 STARLINK-5227,1 54181U 22141AA  24106.57256581  .00000797  00000-0  68142-4 0  9999,2 54181  53.2187 235.4191 0001602  98.4620 261.6554 15.08843087 81226,6917.871,95.437,540.844,538.628,0.0
54181.0,STARLINK-5227,PAYLOAD,2024-04-15 15:19:52,15.08849964,0.0001376,53.2176,235.1198,86.4569,273.658,8.6223e-05,1.085e-05,0.0,0 STARLINK-5227,1 54181U 22141AA  24106.63880099  .00001085  00000-0  86223-4 0  9994,2 54181  53.2176 235.1198 0001376  86.4569 273.6580 15.08849964 81463,6917.85,95.437,540.667,538.763,0.0
54181.0,STARLINK-5227,PAYLOAD,2024-04-16 11:59:53,15.08846798,0.0001206,53.2174,231.2538,87.2415,272.8715,6.1289e-05,6.88e-06,0.0,0 STARLINK-5227,1 54181U 22141AA  24107.49992367  .00000688  00000-0  61289-4 0  9994,2 54181  53.2174 231.2538 0001206  87.2415 272.8715 15.08846798 81594,6917.86,95.437,540.559,538.89,0.0
54181.0,STARLINK-5227,PAYLOAD,2024-04-16 15:10:39,15.08856788,0.0001372,53.2169,230.661,77.9881,282.1265,0.00022782,3.341e-05,0.0,0 STARLINK-5227,1 54181U 22141AA  24107.63239890  .00003341  00000-0  22782-3 0  9998,2 54181  53.2169 230.6610 0001372  77.9881 282.1265 15.08856788 81380,6917.829,95.436,540.643,538.745,0.0
54181.0,STARLINK-5227,PAYLOAD,2024-04-17 11:50:40,15.08841641,0.0001491,53.2164,226.7951,43.0397,317.0711,4.4209e-05,4.16e-06,0.0,0 STARLINK-5227,1 54181U 22141AA  24108.49352581  .00000416  00000-0  44209-4 0  9995,2 54181  53.2164 226.7951 0001491  43.0397 317.0711 15.08841641 81743,6917.875,95.437,540.772,538.709,0.0
54181.0,STARLINK-5227,PAYLOAD,2024-04-17 13:26:03,15.08845795,0.0001382,53.2158,226.4955,65.9886,294.1251,6.5982e-05,7.62e-06,0.0,0 STARLINK-5227,1 54181U 22141AA  24108.55976205  .00000762  00000-0  65982-4 0  9992,2 54181  53.2158 226.4955 0001382  65.9886 294.1251 15.08845795 81526,6917.863,95.437,540.684,538.772,0.0
54181.0,STARLINK-5227,PAYLOAD,2024-04-18 13:16:51,15.08832765,0.0001531,53.2166,222.0394,67.9365,292.1789,-0.00012349,-2.252e-05,0.0,0 STARLINK-5227,1 54181U 22141AA  24109.55337343 -.00002252  00000-0 -12349-3 0  9993,2 54181  53.2166 222.0394 0001531  67.9365 292.1789 15.08832765 81903,6917.903,95.438,540.827,538.708,0.0
54181.0,STARLINK-5227,PAYLOAD,2024-04-19 13:07:36,15.08879524,0.0001794,53.2163,217.5728,97.8842,262.2354,0.00063933,9.912e-05,0.0,0 STARLINK-5227,1 54181U 22141AA  24110.54695200  .00009912  00000-0  63933-3 0  9996,2 54181  53.2163 217.5728 0001794  97.8842 262.2354 15.08879524 82050,6917.76,95.435,540.866,538.384,0.0
54181.0,STARLINK-5227,PAYLOAD,2024-04-19 14:42:59,15.08891556,0.000163,53.2168,217.2717,80.8121,279.3056,0.00082846,0.0001294,0.0,0 STARLINK-5227,1 54181U 22141AA  24110.61318660  .00012940  00000-0  82846-3 0  9995,2 54181  53.2168 217.2717 0001630  80.8121 279.3056 15.08891556 81833,6917.723,95.434,540.715,538.46,0.0
54181.0,STARLINK-5227,PAYLOAD,2024-04-19 16:18:22,15.08895341,0.0001391,53.216,216.9803,94.5716,265.5435,0.0011316,0.00017795,0.0,0 STARLINK-5227,1 54181U 22141AA  24110.67942462  .00017795  00000-0  11316-2 0  9990,2 54181  53.2160 216.9803 0001391  94.5716 265.5435 15.08895341 82074,6917.711,95.434,540.538,538.614,0.0
54181.0,STARLINK-5227,PAYLOAD,2024-04-20 12:58:25,15.08802277,0.0001389,53.2167,213.1182,72.1443,287.9701,-0.00096199,-0.00015549,0.0,0 STARLINK-5227,1 54181U 22141AA  24111.54057028 -.00015549  00000-0 -96199-3 0  9992,2 54181  53.2167 213.1182 0001389  72.1443 287.9701 15.08802277 82201,6917.996,95.44,540.822,538.9,0.0
